[{"OBJECT_NAME":"SITRO-AIS 6 (CHIRKIN)","OBJECT_ID":"2023-091AC","EPOCH":"2026-03-09T23:26:09.745152","MEAN_MOTION":15.244139,"ECCENTRICITY":0.00142211,"INCLINATION":97.5181,"RA_OF_ASC_NODE":131.6463,"ARG_OF_PERICENTER":95.0602,"MEAN_ANOMALY":265.2259,"EPHEMERIS_TYPE":0,"CLASSIFICATION_TYPE":"U","NORAD_CAT_ID":57192,"ELEMENT_SET_NO":999,"REV_AT_EPOCH":14916,"BSTAR":0.00035317072,"MEAN_MOTION_DOT":8.613e-5,"MEAN_MOTION_DDOT":0},{"OBJECT_NAME":"FOSSASAT-2E19 (TAT-E)","OBJECT_ID":"2025-009BV","EPOCH":"2026-03-09T22:59:53.759040","MEAN_MOTION":15.20582164,"ECCENTRICITY":0.00044202,"INCLINATION":97.4006,"RA_OF_ASC_NODE":149.0282,"ARG_OF_PERICENTER":342.8733,"MEAN_ANOMALY":17.2352,"EPHEMERIS_TYPE":0,"CLASSIFICATION_TYPE":"U","NORAD_CAT_ID":62676,"ELEMENT_SET_NO":999,"REV_AT_EPOCH":6361,"BSTAR":0.00019157896,"MEAN_MOTION_DOT":4.129e-5,"MEAN_MOTION_DDOT":0}]
